STARLINK-1597
1 46142U 20057AB  26090.91671296  .00120044  00000+0  13835-2 0  9991
2 46142  53.0460 188.8378 0004415 278.5894 163.8860 15.61089530  5923
